K13TB7L 17.7   0.15 K13B4 344.69702  112.20127    3.36296    9.36592  0.6898696  0.14406356   3.6038493  3 E2013-X58   146   1   67 days 0.39 M-v 38h MPC        0000         2013 TL117          20131210
